[{"OBJECT_NAME":"STARLINK-32823","OBJECT_ID":"2025-018T","EPOCH":"2026-03-09T21:33:44.148096","MEAN_MOTION":15.30202876,"ECCENTRICITY":0.00015132,"INCLINATION":53.1587,"RA_OF_ASC_NODE":308.391,"ARG_OF_PERICENTER":139.7649,"MEAN_ANOMALY":220.3464,"EPHEMERIS_TYPE":0,"CLASSIFICATION_TYPE":"U","NORAD_CAT_ID":62823,"ELEMENT_SET_NO":999,"REV_AT_EPOCH":6321,"BSTAR":0.00050086017,"MEAN_MOTION_DOT":0.00014505,"MEAN_MOTION_DDOT":0},{"OBJECT_NAME":"FENGYUN 1C DEB","OBJECT_ID":"1999-025BQF","EPOCH":"2026-03-08T19:58:36.101856","MEAN_MOTION":15.15826086,"ECCENTRICITY":0.00798835,"INCLINATION":98.9812,"RA_OF_ASC_NODE":89.4872,"ARG_OF_PERICENTER":83.7388,"MEAN_ANOMALY":277.2932,"EPHEMERIS_TYPE":0,"CLASSIFICATION_TYPE":"U","NORAD_CAT_ID":31327,"ELEMENT_SET_NO":999,"REV_AT_EPOCH":1401,"BSTAR":0.0018254058,"MEAN_MOTION_DOT":0.00037915,"MEAN_MOTION_DDOT":0}]
